NORAD_CAT_ID,OBJECT_NAME,OBJECT_TYPE,EPOCH,MEAN_MOTION,ECCENTRICITY,INCLINATION,RA_OF_ASC_NODE,ARG_OF_PERICENTER,MEAN_ANOMALY,BSTAR,MEAN_MOTION_DOT,MEAN_MOTION_DDOT,TLE_LINE0,TLE_LINE1,TLE_LINE2,SEMIMAJOR_AXIS,PERIOD,APOGEE,PERIGEE,DECAYED
51858.0,STARLINK-3563,PAYLOAD,2022-05-15 14:00:01,15.08844315,0.0001839,53.2133,157.506,46.0145,131.675,-0.00030344,-5.115e-05,0.0,0 STARLINK-3563,1 51858U 22022G   22135.58335648 -.00005115  00000-0 -30344-3 0  9991,2 51858  53.2133 157.5060 0001839  46.0145 131.6750 15.08844315 12556,6917.8669999999975,95.437,541.004,538.46,0.0
51858.0,STARLINK-3563,PAYLOAD,2022-05-15 22:00:00,15.08806929,0.0001688,53.2134,156.0078,53.5201,135.7173,0.00209,0.00033101,0.0,0 STARLINK-3563,1 51858U 22022G   22135.91667824  .00033101  00000-0  20900-2 0  9992,2 51858  53.2134 156.0078 0001688  53.5201 135.7173 15.08806929  1302,6917.981,95.44,541.014,538.679,0.0
51858.0,STARLINK-3563,PAYLOAD,2022-05-16 14:00:01,15.08825611,0.0001882,53.213,153.0165,49.2064,163.1716,0.00036224,5.479e-05,0.0,0 STARLINK-3563,1 51858U 22022G   22136.58334491  .00005479  00000-0  36224-3 0  9991,2 51858  53.2130 153.0165 0001882  49.2064 163.1716 15.08825611  1304,6917.924,95.438,541.091,538.487,0.0
51858.0,STARLINK-3563,PAYLOAD,2022-05-16 22:00:00,15.08810042,0.0001716,53.213,151.5183,55.9641,168.0049,0.0027292,0.00043379,0.0,0 STARLINK-3563,1 51858U 22022G   22136.91667824  .00043379  00000-0  27292-2 0  9992,2 51858  53.2130 151.5183 0001716  55.9641 168.0049 15.08810042 12754,6917.972,95.439,541.024,538.65,0.0
51858.0,STARLINK-3563,PAYLOAD,2022-05-17 12:00:00,15.08816147,0.0001906,53.2128,148.9015,50.2811,103.9648,0.0027674,0.00044002,0.0,0 STARLINK-3563,1 51858U 22022G   22137.50001157  .00044002  00000-0  27674-2 0  9997,2 51858  53.2128 148.9015 0001906  50.2811 103.9648 15.08816147 12848,6917.953,95.439,541.137,538.5,0.0
51858.0,STARLINK-3563,PAYLOAD,2022-05-17 14:00:01,15.08842568,0.0001883,53.2126,148.52700000000004,51.0794,196.1181,-0.00031465,-5.293e-05,0.0,0 STARLINK-3563,1 51858U 22022G   22137.58335648 -.00005293  00000-0 -31465-3 0  9995,2 51858  53.2126 148.5270 0001883  51.0794 196.1181 15.08842568  1309,6917.873000000001,95.437,541.04,538.435,0.0
51858.0,STARLINK-3563,PAYLOAD,2022-05-17 22:00:01,15.08821859,0.0001759,53.2127,147.0288,58.0302,200.7733,0.0028452,0.00045262,0.0,0 STARLINK-3563,1 51858U 22022G   22137.91668981  .00045262  00000-0  28452-2 0  9990,2 51858  53.2127 147.0288 0001759  58.0302 200.7733 15.08821859  1302,6917.936,95.439,541.018,538.5840000000002,0.0
51858.0,STARLINK-3563,PAYLOAD,2022-05-18 06:00:00,15.08854656,0.0001884,53.2129,145.5339,54.8216,215.5123,-0.0010763,-0.00017384,0.0,0 STARLINK-3563,1 51858U 22022G   22138.25001157 -.00017384  00000-0 -10763-2 0  9996,2 51858  53.2129 145.5339 0001884  54.8216 215.5123 15.08854656 12952,6917.8359999999975,95.437,541.004,538.3969999999998,0.0
51858.0,STARLINK-3563,PAYLOAD,2022-05-18 14:00:01,15.08871812,0.0001864,53.2126,144.0375,51.3966,230.5353,-0.0033905,-0.00053892,0.0,0 STARLINK-3563,1 51858U 22022G   22138.58334491 -.00053892  00000-0 -33905-2 0  9999,2 51858  53.2126 144.0375 0001864  51.3966 230.5353 15.08871812  1307,6917.783,95.436,540.938,538.359,0.0
51858.0,STARLINK-3563,PAYLOAD,2022-05-18 22:00:00,15.08809225,0.0001717,53.2128,142.5393,56.9309,236.6221,0.0024859,0.00039464,0.0,0 STARLINK-3563,1 51858U 22022G   22138.91667824  .00039464  00000-0  24859-2 0  9990,2 51858  53.2128 142.5393 0001717  56.9309 236.6221 15.08809225  1301,6917.974,95.44,541.0269999999998,538.6519999999998,0.0
51858.0,STARLINK-3563,PAYLOAD,2022-05-19 06:00:00,15.08833125,0.000193,53.2139,141.0444,50.7625,254.4422,-0.00083826,-0.00013602,0.0,0 STARLINK-3563,1 51858U 22022G   22139.25001157 -.00013602  00000-0 -83826-3 0  9997,2 51858  53.2139 141.0444 0001930  50.7625 254.4422 15.08833125 13102,6917.901,95.438,541.102,538.431,0.0
51858.0,STARLINK-3563,PAYLOAD,2022-05-19 14:00:01,15.08843625,0.0001914,53.2131,139.5479,47.7347,269.1074,-0.0012811,-0.00020621,0.0,0 STARLINK-3563,1 51858U 22022G   22139.58335648 -.00020621  00000-0 -12811-2 0  9992,2 51858  53.2131 139.5479 0001914  47.7347 269.1074 15.08843625  1304,6917.869000000002,95.437,541.058,538.41,0.0
51858.0,STARLINK-3563,PAYLOAD,2022-05-19 22:00:00,15.08868083,0.0001763,53.215,138.0477,54.449,273.9266,-0.012036,-0.00187056,0.0,0 STARLINK-3563,1 51858U 22022G   22139.91667824 -.00187056  00000-0 -12036-1 0  9997,2 51858  53.2150 138.0477 0001763  54.4490 273.9266 15.08868083  1304,6917.795,95.436,540.879,538.44,0.0
51858.0,STARLINK-3563,PAYLOAD,2022-05-20 06:00:00,15.08821432,0.0001916,53.2137,136.5552,48.7509,291.1932,-0.00086705,-0.00014054,0.0,0 STARLINK-3563,1 51858U 22022G   22140.25001157 -.00014054  00000-0 -86705-3 0  9990,2 51858  53.2137 136.5552 0001916  48.7509 291.1932 15.08821432 13259,6917.937,95.439,541.128,538.477,0.0
51858.0,STARLINK-3563,PAYLOAD,2022-05-20 14:00:01,15.08838261,0.0001914,53.2137,135.0586,46.6003,304.9107,-0.0014134,-0.00022711,0.0,0 STARLINK-3563,1 51858U 22022G   22140.58334491 -.00022711  00000-0 -14134-2 0  9991,2 51858  53.2137 135.0586 0001914  46.6003 304.9107 15.08838261  1302,6917.886,95.438,541.075,538.427,0.0
51858.0,STARLINK-3563,PAYLOAD,2022-05-20 22:00:00,15.08811637,0.0001818,53.2142,133.5606,53.4862,309.6132,0.0028892,0.00045958,0.0,0 STARLINK-3563,1 51858U 22022G   22140.91667824  .00045958  00000-0  28892-2 0  9999,2 51858  53.2142 133.5606 0001818  53.4862 309.6132 15.08811637 13352,6917.967,95.439,541.09,538.5740000000002,0.0
51858.0,STARLINK-3563,PAYLOAD,2022-05-21 06:00:00,15.08842421,0.000201,53.2144,132.0661,49.6988,324.9847,-0.00064194,-0.00010491,0.0,0 STARLINK-3563,1 51858U 22022G   22141.25001157 -.00010491  00000-0 -64194-3 0  9990,2 51858  53.2144 132.0661 0002010  49.6988 324.9847 15.08842421  1300,6917.873000000001,95.437,541.128,538.347,0.0
51858.0,STARLINK-3563,PAYLOAD,2022-05-21 14:00:01,15.08870422,0.0001949,53.2143,130.5692,47.7173,338.6185,-0.0032025999999999,-0.00050941,0.0,0 STARLINK-3563,1 51858U 22022G   22141.58335648 -.00050941  00000-0 -32026-2 0  9993,2 51858  53.2143 130.5692 0001949  47.7173 338.6185 15.08870422 13459,6917.7869999999975,95.436,541.001,538.304,0.0
51858.0,STARLINK-3563,PAYLOAD,2022-05-21 22:00:00,15.08819251,0.0001799,53.2147,129.0716,53.518,344.3744,0.002136,0.00033851,0.0,0 STARLINK-3563,1 51858U 22022G   22141.91667824  .00033851  00000-0  21360-2 0  9992,2 51858  53.2147 129.0716 0001799  53.5180 344.3744 15.08819251  1308,6917.944,95.439,541.053,538.564,0.0
51858.0,STARLINK-3563,PAYLOAD,2022-05-22 06:00:00,15.08837835,0.0001964,53.2148,127.577,48.6639,0.812,-0.00042184,-6.995e-05,0.0,0 STARLINK-3563,1 51858U 22022G   22142.25001157 -.00006995  00000-0 -42184-3 0  9990,2 51858  53.2148 127.5770 0001964  48.6639   0.8120 15.08837835 13561,6917.887,95.438,541.111,538.393,0.0
51858.0,STARLINK-3563,PAYLOAD,2022-05-22 14:00:01,15.088653400000002,0.0001878,53.2147,126.08,47.1098,13.9505,-0.0045851999999999,-0.00072579,0.0,0 STARLINK-3563,1 51858U 22022G   22142.58334491 -.00072579  00000-0 -45852-2 0  9991,2 51858  53.2147 126.0800 0001878  47.1098  13.9505 15.08865340  1308,6917.803000000001,95.436,540.967,538.369,0.0
51858.0,STARLINK-3563,PAYLOAD,2022-05-22 22:00:01,15.08799554,0.0001915,53.2169,124.5795,47.7836,24.8969,0.0037422,0.00059708,0.0,0 STARLINK-3563,1 51858U 22022G   22142.91668981  .00059708  00000-0  37422-2 0  9993,2 51858  53.2169 124.5795 0001915  47.7836  24.8969 15.08799554 13666,6918.004,95.44,541.194,538.544,0.0
51858.0,STARLINK-3563,PAYLOAD,2022-05-23 14:00:01,15.08845876,0.0001791,53.2145,121.5908,47.5316,48.2366,-0.0016064,-0.00025767,0.0,0 STARLINK-3563,1 51858U 22022G   22143.58334491 -.00025767  00000-0 -16064-2 0  9992,2 51858  53.2145 121.5908 0001791  47.5316  48.2366 15.08845876 13767,6917.861999999999,95.437,540.966,538.488,0.0
51858.0,STARLINK-3563,PAYLOAD,2022-05-23 22:00:01,15.08832919,0.0001685,53.2148,120.0933,54.3579,53.0664,0.0019664,0.0003114,0.0,0 STARLINK-3563,1 51858U 22022G   22143.91668981  .00031140  00000-0  19664-2 0  9992,2 51858  53.2148 120.0933 0001685  54.3579  53.0664 15.08832919  1307,6917.901999999999,95.438,540.933,538.601,0.0
51858.0,STARLINK-3563,PAYLOAD,2022-05-24 06:00:02,15.08843549,0.0001842,53.2146,118.5987,48.9561,70.0684,0.000278,4.139e-05,0.0,0 STARLINK-3563,1 51858U 22022G   22144.25002315  .00004139  00000-0  27800-3 0  9993,2 51858  53.2146 118.5987 0001842  48.9561  70.0684 15.08843549 13867,6917.87,95.437,541.009,538.46,0.0
51858.0,STARLINK-3563,PAYLOAD,2022-05-24 14:00:01,15.08878138,0.0001737,53.2141,117.1013,49.0893,81.4674,-0.0044927,-0.00071159,0.0,0 STARLINK-3563,1 51858U 22022G   22144.58334491 -.00071159  00000-0 -44927-2 0  9998,2 51858  53.2141 117.1013 0001737  49.0893  81.4674 15.08878138  1303,6917.764,95.435,540.83,538.427,0.0
51858.0,STARLINK-3563,PAYLOAD,2022-05-24 22:00:00,15.08828797,0.0001603,53.2143,115.604,54.5628,87.6068,0.0013774,0.00021695,0.0,0 STARLINK-3563,1 51858U 22022G   22144.91667824  .00021695  00000-0  13774-2 0  9998,2 51858  53.2143 115.6040 0001603  54.5628  87.6068 15.08828797  1308,6917.915,95.438,540.889,538.6709999999998,0.0
51858.0,STARLINK-3563,PAYLOAD,2022-05-25 12:00:00,15.08856586,0.0001751999999999,53.2135,112.9864,47.7918,24.6652,-0.00072958,-0.00011886,0.0,0 STARLINK-3563,1 51858U 22022G   22145.50001157 -.00011886  00000-0 -72958-3 0  9998,2 51858  53.2135 112.9864 0001752  47.7918  24.6652 15.08856586 14057,6917.83,95.437,540.9069999999998,538.4830000000002,0.0
51858.0,STARLINK-3563,PAYLOAD,2022-05-25 14:00:01,15.08862911,0.0001703,53.2136,112.6118,50.6928,114.6648,-0.0016213,-0.00026015,0.0,0 STARLINK-3563,1 51858U 22022G   22145.58334491 -.00026015  00000-0 -16213-2 0  9997,2 51858  53.2136 112.6118 0001703  50.6928 114.6648 15.08862911  1305,6917.81,95.436,540.8530000000002,538.497,0.0
